STARLINK-3318           
1 50837U 22001AL  26068.59968899 -.00000552  00000+0 -16592-4 0  9993
2 50837  53.2175 169.5248 0001495  90.9297 269.1866 15.08837396230393
STARLINK-5895           
1 55964U 23037BC  26068.93316413  .00010921  00000+0  72850-3 0  9993
2 55964  69.9972 260.0280 0004986 264.4993  95.5602 15.07243555164606
